start=new Date('2023-04-14T00:00:00.000Z').valueOf();
sats=[{"PERIOD":"95.437","MEAN_MOTION_DOT":"0.00001778","INCLINATION":"53.2183","OBJECT_TYPE":"PAYLOAD","FILE":"3886564","CENTER_NAME":"EARTH","COUNTRY_CODE":"US","ELEMENT_SET_NO":"999","RA_OF_ASC_NODE":"284.1864","BSTAR":"0.00012969000000","MEAN_ELEMENT_THEORY":"SGP4","TLE_LINE1":"1 52358U 22045AD  23103.23225361  .00001778  00000-0  12969-3 0  9992","MEAN_MOTION":"15.08847527","RCS_SIZE":"LARGE","PERIAPSIS":"539.501","ARG_OF_PERICENTER":"25.1830","EPHEMERIS_TYPE":"0","MEAN_MOTION_DDOT":"0.0000000000000","REV_AT_EPOCH":"5554","GP_ID":"230014521","SEMIMAJOR_AXIS":"6917.857","MEAN_ANOMALY":"334.9177","TIME_SYSTEM":"UTC","TLE_LINE2":"2 52358  53.2183 284.1864 0000320  25.1830 334.9177 15.08847527 55544","OBJECT_ID":"2022-045AD","DECAY_DATE":null,"ECCENTRICITY":"0.00003200","REF_FRAME":"TEME","APOAPSIS":"539.944","CLASSIFICATION_TYPE":"U","SITE":"AFETR","LAUNCH_DATE":"2022-04-29","NORAD_CAT_ID":"52358","EPOCH":"2023-04-13T05:34:26.711904","OBJECT_NAME":"STARLINK-3837"},{"GP_ID":"230015269","REV_AT_EPOCH":"5549","SEMIMAJOR_AXIS":"6917.872","MEAN_ANOMALY":"293.4988","TIME_SYSTEM":"UTC","OBJECT_ID":"2022-045AE","TLE_LINE2":"2 52359  53.2159 285.6137 0001072  66.6117 293.4988 15.08842817 55490","DECAY_DATE":null,"ECCENTRICITY":"0.00010720","REF_FRAME":"TEME","APOAPSIS":"540.478","CLASSIFICATION_TYPE":"U","SITE":"AFETR","LAUNCH_DATE":"2022-04-29","NORAD_CAT_ID":"52359","EPOCH":"2023-04-12T22:00:06.214176","OBJECT_NAME":"STARLINK-3853","PERIOD":"95.437","MEAN_MOTION_DOT":"0.00000663","INCLINATION":"53.2159","OBJECT_TYPE":"PAYLOAD","FILE":"3886564","CENTER_NAME":"EARTH","COUNTRY_CODE":"US","ELEMENT_SET_NO":"999","RA_OF_ASC_NODE":"285.6137","BSTAR":"0.00005974700000","MEAN_ELEMENT_THEORY":"SGP4","TLE_LINE1":"1 52359U 22045AE  23102.91673859  .00000663  00000-0  59747-4 0  9994","RCS_SIZE":"LARGE","MEAN_MOTION":"15.08842817","PERIAPSIS":"538.995","EPHEMERIS_TYPE":"0","ARG_OF_PERICENTER":"66.6117","MEAN_MOTION_DDOT":"0.0000000000000"},{"ARG_OF_PERICENTER":"314.0823","EPHEMERIS_TYPE":"0","MEAN_MOTION_DDOT":"0.0000000000000","PERIAPSIS":"539.539","RCS_SIZE":"LARGE","TLE_LINE1":"1 52360U 22045AF  23103.42454783  .00010348  00000-0  66759-3 0  9997","MEAN_MOTION":"15.08822118","COUNTRY_CODE":"US","CENTER_NAME":"EARTH","RA_OF_ASC_NODE":"273.3238","ELEMENT_SET_NO":"999","MEAN_ELEMENT_THEORY":"SGP4","BSTAR":"0.00066759000000","PERIOD":"95.439","INCLINATION":"53.2214","MEAN_MOTION_DOT":"0.00010348","FILE":"3886564","OBJECT_TYPE":"PAYLOAD","OBJECT_NAME":"STARLINK-3824","CLASSIFICATION_TYPE":"U","SITE":"AFETR","LAUNCH_DATE":"2022-04-29","NORAD_CAT_ID":"52360","EPOCH":"2023-04-13T10:11:20.932512","ECCENTRICITY":"0.00003770","REF_FRAME":"TEME","APOAPSIS":"540.061","SEMIMAJOR_AXIS":"6917.935","REV_AT_EPOCH":"5569","GP_ID":"230014020","TIME_SYSTEM":"UTC","MEAN_ANOMALY":"46.0139","OBJECT_ID":"2022-045AF","TLE_LINE2":"2 52360  53.2214 273.3238 0000377 314.0823  46.0139 15.08822118 55695","DECAY_DATE":null},{"ELEMENT_SET_NO":"999","RA_OF_ASC_NODE":"282.3699","CENTER_NAME":"EARTH","COUNTRY_CODE":"US","BSTAR":"0.00009904800000","MEAN_ELEMENT_THEORY":"SGP4","MEAN_MOTION_DOT":"0.00001289","INCLINATION":"53.2159","PERIOD":"95.438","OBJECT_TYPE":"PAYLOAD","FILE":"3886927","MEAN_MOTION_DDOT":"0.0000000000000","ARG_OF_PERICENTER":"60.1876","EPHEMERIS_TYPE":"0","RCS_SIZE":"LARGE","TLE_LINE1":"1 52361U 22045AG  23103.63706134  .00001289  00000-0  99048-4 0  9993","MEAN_MOTION":"15.08840344","PERIAPSIS":"538.994","REF_FRAME":"TEME","ECCENTRICITY":"0.00010850","APOAPSIS":"540.495","MEAN_ANOMALY":"299.9224","TIME_SYSTEM":"UTC","GP_ID":"230026090","REV_AT_EPOCH":"5560","SEMIMAJOR_AXIS":"6917.879","DECAY_DATE":null,"TLE_LINE2":"2 52361  53.2159 282.3699 0001085  60.1876 299.9224 15.08840344 55605","OBJECT_ID":"2022-045AG","OBJECT_NAME":"STARLINK-3728","SITE":"AFETR","LAUNCH_DATE":"2022-04-29","CLASSIFICATION_TYPE":"U","EPOCH":"2023-04-13T15:17:22.099776","NORAD_CAT_ID":"52361"},{"LAUNCH_DATE":"2022-04-29","SITE":"AFETR","CLASSIFICATION_TYPE":"U","EPOCH":"2023-04-13T10:06:01.900512","NORAD_CAT_ID":"52362","OBJECT_NAME":"STARLINK-3848","TIME_SYSTEM":"UTC","MEAN_ANOMALY":"275.7283","SEMIMAJOR_AXIS":"6917.856","REV_AT_EPOCH":"5570","GP_ID":"230015022","DECAY_DATE":null,"TLE_LINE2":"2 52362  53.2124 273.3373 0001403  84.3869 275.7283 15.08848108 55705","OBJECT_ID":"2022-045AH","REF_FRAME":"TEME","ECCENTRICITY":"0.00014030","APOAPSIS":"540.691","PERIAPSIS":"538.750","MEAN_MOTION":"15.08848108","TLE_LINE1":"1 52362U 22045AH  23103.42085533  .00003574  00000-0  24248-3 0  9992","RCS_SIZE":"LARGE","MEAN_MOTION_DDOT":"0.0000000000000","EPHEMERIS_TYPE":"0","ARG_OF_PERICENTER":"84.3869","INCLINATION":"53.2124","MEAN_MOTION_DOT":"0.00003574","PERIOD":"95.437","FILE":"3886564","OBJECT_TYPE":"PAYLOAD","RA_OF_ASC_NODE":"273.3373","ELEMENT_SET_NO":"999","COUNTRY_CODE":"US","CENTER_NAME":"EARTH","MEAN_ELEMENT_THEORY":"SGP4","BSTAR":"0.00024248000000"},{"MEAN_MOTION_DDOT":"0.0000000000000","ARG_OF_PERICENTER":"51.3394","EPHEMERIS_TYPE":"0","TLE_LINE1":"1 52363U 22045AJ  23103.23593763 -.00002024  00000-0 -10906-3 0  9998","RCS_SIZE":"LARGE","MEAN_MOTION":"15.08848044","PERIAPSIS":"538.729","ELEMENT_SET_NO":"999","RA_OF_ASC_NODE":"284.1707","CENTER_NAME":"EARTH","COUNTRY_CODE":"US","BSTAR":"-0.00010906000000","MEAN_ELEMENT_THEORY":"SGP4","MEAN_MOTION_DOT":"-0.00002024","INCLINATION":"53.2133","PERIOD":"95.437","OBJECT_TYPE":"PAYLOAD","FILE":"3886564","OBJECT_NAME":"STARLINK-3830","LAUNCH_DATE":"2022-04-29","SITE":"AFETR","CLASSIFICATION_TYPE":"U","EPOCH":"2023-04-13T05:39:45.011232","NORAD_CAT_ID":"52363","REF_FRAME":"TEME","ECCENTRICITY":"0.00014330","APOAPSIS":"540.712","MEAN_ANOMALY":"308.7726","TIME_SYSTEM":"UTC","REV_AT_EPOCH":"5554","GP_ID":"230014770","SEMIMAJOR_AXIS":"6917.856","DECAY_DATE":null,"OBJECT_ID":"2022-045AJ","TLE_LINE2":"2 52363  53.2133 284.1707 0001433  51.3394 308.7726 15.08848044 55547"},{"MEAN_MOTION_DDOT":"0.0000000000000","ARG_OF_PERICENTER":"82.6424","EPHEMERIS_TYPE":"0","MEAN_MOTION":"15.08836413","TLE_LINE1":"1 52364U 22045AK  23103.20741287  .00001849  00000-0  13423-3 0  9991","RCS_SIZE":"LARGE","PERIAPSIS":"539.113","BSTAR":"0.00013423000000","MEAN_ELEMENT_THEORY":"SGP4","ELEMENT_SET_NO":"999","RA_OF_ASC_NODE":"274.2129","CENTER_NAME":"EARTH","COUNTRY_CODE":"US","OBJECT_TYPE":"PAYLOAD","FILE":"3886564","MEAN_MOTION_DOT":"0.00001849","INCLINATION":"53.2153","PERIOD":"95.438","OBJECT_NAME":"STARLINK-3820","EPOCH":"2023-04-13T04:58:40.471968","NORAD_CAT_ID":"52364","SITE":"AFETR","LAUNCH_DATE":"2022-04-29","CLASSIFICATION_TYPE":"U","APOAPSIS":"540.400","REF_FRAME":"TEME","ECCENTRICITY":"0.00009300","DECAY_DATE":null,"OBJECT_ID":"2022-045AK","TLE_LINE2":"2 52364  53.2153 274.2129 0000930  82.6424 277.4674 15.08836413 55675","MEAN_ANOMALY":"277.4674","TIME_SYSTEM":"UTC","GP_ID":"230013520","REV_AT_EPOCH":"5567","SEMIMAJOR_AXIS":"6917.891"},{"MEAN_MOTION_DDOT":"0.0000000000000","ARG_OF_PERICENTER":"87.0661","EPHEMERIS_TYPE":"0","PERIAPSIS":"539.043","TLE_LINE1":"1 52365U 22045AL  23103.42822101  .00000748  00000-0  65082-4 0  9997","MEAN_MOTION":"15.08837039","RCS_SIZE":"LARGE","RA_OF_ASC_NODE":"273.3074","ELEMENT_SET_NO":"999","COUNTRY_CODE":"US","CENTER_NAME":"EARTH","MEAN_ELEMENT_THEORY":"SGP4","BSTAR":"0.00006508200000","INCLINATION":"53.2158","MEAN_MOTION_DOT":"0.00000748","PERIOD":"95.438","FILE":"3886564","OBJECT_TYPE":"PAYLOAD","OBJECT_NAME":"STARLINK-3874","LAUNCH_DATE":"2022-04-29","SITE":"AFETR","CLASSIFICATION_TYPE":"U","EPOCH":"2023-04-13T10:16:38.295264","NORAD_CAT_ID":"52365","REF_FRAME":"TEME","ECCENTRICITY":"0.00010290","APOAPSIS":"540.466","TIME_SYSTEM":"UTC","MEAN_ANOMALY":"273.0449","SEMIMAJOR_AXIS":"6917.889","GP_ID":"230014271","REV_AT_EPOCH":"5570","DECAY_DATE":null,"OBJECT_ID":"2022-045AL","TLE_LINE2":"2 52365  53.2158 273.3074 0001029  87.0661 273.0449 15.08837039 55703"},{"MEAN_MOTION_DDOT":"0.0000000000000","EPHEMERIS_TYPE":"0","ARG_OF_PERICENTER":"101.2496","PERIAPSIS":"537.778","RCS_SIZE":"LARGE","TLE_LINE1":"1 52366U 22045AM  23103.74101570  .00001979  00000-0  14241-3 0  9990","MEAN_MOTION":"15.08840552","MEAN_ELEMENT_THEORY":"SGP4","BSTAR":"0.00014241000000","RA_OF_ASC_NODE":"271.9046","ELEMENT_SET_NO":"999","COUNTRY_CODE":"US","CENTER_NAME":"EARTH","FILE":"3886931","OBJECT_TYPE":"PAYLOAD","INCLINATION":"53.2153","MEAN_MOTION_DOT":"0.00001979","PERIOD":"95.438","OBJECT_NAME":"STARLINK-3808","EPOCH":"2023-04-13T17:47:03.756480","NORAD_CAT_ID":"52366","SITE":"AFETR","LAUNCH_DATE":"2022-04-29","CLASSIFICATION_TYPE":"U","APOAPSIS":"541.710","REF_FRAME":"TEME","ECCENTRICITY":"0.00028420","DECAY_DATE":null,"OBJECT_ID":"2022-045AM","TLE_LINE2":"2 52366  53.2153 271.9046 0002842 101.2496 258.8815 15.08840552 55758","TIME_SYSTEM":"UTC","MEAN_ANOMALY":"258.8815","SEMIMAJOR_AXIS":"6917.879","GP_ID":"230026058","REV_AT_EPOCH":"5575"},{"RA_OF_ASC_NODE":"271.8730","ELEMENT_SET_NO":"999","COUNTRY_CODE":"US","CENTER_NAME":"EARTH","MEAN_ELEMENT_THEORY":"SGP4","BSTAR":"0.00012087000000","INCLINATION":"53.2131","MEAN_MOTION_DOT":"0.00001636","PERIOD":"95.437","FILE":"3886931","OBJECT_TYPE":"PAYLOAD","MEAN_MOTION_DDOT":"0.0000000000000","ARG_OF_PERICENTER":"82.4068","EPHEMERIS_TYPE":"0","PERIAPSIS":"538.588","TLE_LINE1":"1 52367U 22045AN  23103.74837585  .00001636  00000-0  12087-3 0  9999","MEAN_MOTION":"15.08844744","RCS_SIZE":"LARGE","REF_FRAME":"TEME","ECCENTRICITY":"0.00016520","APOAPSIS":"540.874","TIME_SYSTEM":"UTC","MEAN_ANOMALY":"277.7112","SEMIMAJOR_AXIS":"6917.866","GP_ID":"230026054","REV_AT_EPOCH":"5575","DECAY_DATE":null,"OBJECT_ID":"2022-045AN","TLE_LINE2":"2 52367  53.2131 271.8730 0001652  82.4068 277.7112 15.08844744 55754","OBJECT_NAME":"STARLINK-3817","LAUNCH_DATE":"2022-04-29","SITE":"AFETR","CLASSIFICATION_TYPE":"U","EPOCH":"2023-04-13T17:57:39.673440","NORAD_CAT_ID":"52367"}];
